{
    "links": {
        "self": "http://www.neowsapp.com/rest/v1/neo/3508166?api_key=iIulBulltgU6a56xZRHN4H3l9WmuAYTsLGpBGhQ2"
    },
    "id": "3508166",
    "neo_reference_id": "3508166",
    "name": "(2010 CA55)",
    "designation": "2010 CA55",
    "nasa_jpl_url": "http://ssd.jpl.nasa.gov/sbdb.cgi?sstr=3508166",
    "is_potentially_hazardous_asteroid": false,
    "close_approach_data": [
        {
            "close_approach_date": "2010-01-12",
            "close_approach_date_full": "2010-Jan-12 09:18",
            "epoch_date_close_approach": 1263287880000,
            "relative_velocity": {
                "kilometers_per_second": "40.8578787383",
                "kilometers_per_hour": "147088.3634579614",
                "miles_per_hour": "91394.9889497538"
            },
            "miss_distance": {
                "astronomical": "0.1591658504",
                "lunar": "61.9155158056",
                "kilometers": "23810872.196578648",
                "miles": "14795389.9116074224"
            },
            "orbiting_body": "Earth"
        }
    ],
    "orbital_data": {
        "orbit_id": "19",
        "orbit_determination_date": "2019-12-18 12:51:24",
        "first_observation_date": "2010-02-04",
        "last_observation_date": "2010-02-08",
        "data_arc_in_days": 4,
        "observations_used": 37,
        "orbit_uncertainty": "9",
        "minimum_orbit_intersection": ".151371",
        "jupiter_tisserand_invariant": "1.464",
        "epoch_osculation": "2455234.5",
        "eccentricity": ".8771116820502012",
        "semi_major_axis": "5.433347448186323",
        "inclination": "58.92741426069408",
        "ascending_node_longitude": "106.4956977302448",
        "orbital_period": "4625.936252769795",
        "perihelion_distance": ".6676949287444489",
        "perihelion_argument": "308.00920190",
        "aphelion_distance": "10.1989999676282",
        "perihelion_time": "2455181.869961195836",
        "mean_anomaly": "4.095779304817391",
        "mean_motion": ".0778220840774554",
        "equinox": "J2000",
        "orbit_class": {
            "orbit_class_type": "APO",
            "orbit_class_description": "Near-Earth asteroid orbits which cross the Earth's orbit similar to that of 1862 Apollo",
            "orbit_class_range": "a (semi-major axis) > 1.0 AU; q (perihelion) < 1.017 AU"
        }
    },
    "is_sentry_object": false
}